[{"OBJECT_NAME":"STARLINK-30547","OBJECT_ID":"2023-156S","EPOCH":"2026-03-09T13:42:11.284416","MEAN_MOTION":15.30185923,"ECCENTRICITY":0.0001045,"INCLINATION":53.1606,"RA_OF_ASC_NODE":168.7607,"ARG_OF_PERICENTER":106.5336,"MEAN_ANOMALY":253.5779,"EPHEMERIS_TYPE":0,"CLASSIFICATION_TYPE":"U","NORAD_CAT_ID":58044,"ELEMENT_SET_NO":999,"REV_AT_EPOCH":13501,"BSTAR":-5.5712e-6,"MEAN_MOTION_DOT":-5.24e-6,"MEAN_MOTION_DDOT":0},{"OBJECT_NAME":"CZ-6A DEB","OBJECT_ID":"2024-140AAN","EPOCH":"2026-03-09T15:08:07.195776","MEAN_MOTION":15.20547394,"ECCENTRICITY":0.0064261,"INCLINATION":89.3669,"RA_OF_ASC_NODE":306.3092,"ARG_OF_PERICENTER":93.6352,"MEAN_ANOMALY":267.2246,"EPHEMERIS_TYPE":0,"CLASSIFICATION_TYPE":"U","NORAD_CAT_ID":61480,"ELEMENT_SET_NO":999,"REV_AT_EPOCH":8198,"BSTAR":0.0033609,"MEAN_MOTION_DOT":0.00078405,"MEAN_MOTION_DDOT":0}]
